{"type": "FeatureCollection", "features": [ {"type": "Feature", "properties": {"norad_id": 58662, "name": "TIANMU-1 21", "group": "weather", "lat": -80.15916340223595, "lon": -123.7053683666622, "alt_km": 474.45279932608355, "timestamp": "2025-12-17T17:50:18.895601+00:00", "meta": {"OBJECT_NAME": "TIANMU-1 21", "OBJECT_ID": "2023-208C", "EPOCH": "2025-12-17T07:17:00.746304", "MEAN_MOTION": 15.31649563, "ECCENTRICITY": 0.00060463, "INCLINATION": 97.4375, "RA_OF_ASC_NODE": 104.7125, "ARG_OF_PERICENTER": 240.8183, "MEAN_ANOMALY": 119.2454, "EPHEMERIS_TYPE": 0, "CLASSIFICATION_TYPE": "U", "NORAD_CAT_ID": 58662, "ELEMENT_SET_NO": 999, "REV_AT_EPOCH": 10969, "BSTAR": 0.00030137805, "MEAN_MOTION_DOT": 9.138e-05, "MEAN_MOTION_DDOT": 0}, "tle": {"line1": "1 58662U 23208C   25351.30348086  .00009138  00000+0  30138-3 0  9998", "line2": "2 58662  97.4375 104.7125 0006046 240.8183 119.2454 15.31649563109690"}}, "geometry": {"type": "Point", "coordinates": [-123.7053683666622, -80.15916340223595]}}, {"type": "Feature", "properties": {"norad_id": 58663, "name": "TIANMU-1 22", "group": "weather", "lat": 64.37231551495262, "lon": -61.36843291164387, "alt_km": 478.011801011824, "timestamp": "2025-12-17T17:50:18.895611+00:00", "meta": {"OBJECT_NAME": "TIANMU-1 22", "OBJECT_ID": "2023-208D", "EPOCH": "2025-12-17T06:20:04.658784", "MEAN_MOTION": 15.27682165, "ECCENTRICITY": 0.0002686, "INCLINATION": 97.4384, "RA_OF_ASC_NODE": 102.3492, "ARG_OF_PERICENTER": 262.9576, "MEAN_ANOMALY": 97.1357, "EPHEMERIS_TYPE": 0, "CLASSIFICATION_TYPE": "U", "NORAD_CAT_ID": 58663, "ELEMENT_SET_NO": 999, "REV_AT_EPOCH": 10952, "BSTAR": 0.00029021473, "MEAN_MOTION_DOT": 7.778e-05, "MEAN_MOTION_DDOT": 0}, "tle": {"line1": "1 58663U 23208D   25351.26394281  .00007778  00000+0  29021-3 0  9999", "line2": "2 58663  97.4384 102.3492 0002686 262.9576  97.1357 15.27682165109527"}}, "geometry": {"type": "Point", "coordinates": [-61.36843291164387, 64.37231551495262]}}, {"type": "Feature", "properties": {"norad_id": 58700, "name": "TIANMU-1 15", "group": "weather", "lat": -7.195703061330769, "lon": -7.7548250912888745, "alt_km": 495.7949667279945, "timestamp": "2025-12-17T17:50:18.895621+00:00", "meta": {"OBJECT_NAME": "TIANMU-1 15", "OBJECT_ID": "2024-004A", "EPOCH": "2025-12-15T13:02:10.173984", "MEAN_MOTION": 15.24523626, "ECCENTRICITY": 0.00056536, "INCLINATION": 97.4626, "RA_OF_ASC_NODE": 171.0022, "ARG_OF_PERICENTER": 279.9728, "MEAN_ANOMALY": 80.0871, "EPHEMERIS_TYPE": 0, "CLASSIFICATION_TYPE": "U", "NORAD_CAT_ID": 58700, "ELEMENT_SET_NO": 999, "REV_AT_EPOCH": 10777, "BSTAR": 0.00021318175, "MEAN_MOTION_DOT": 5.174e-05, "MEAN_MOTION_DDOT": 0}, "tle": {"line1": "1 58700U 24004A   25349.54317331  .00005174  00000+0  21318-3 0  9994", "line2": "2 58700  97.4626 171.0022 0005653 279.9728  80.0871 15.24523626107774"}}, "geometry": {"type": "Point", "coordinates": [-7.7548250912888745, -7.195703061330769]}}, {"type": "Feature", "properties": {"norad_id": 58701, "name": "TIANMU-1 16", "group": "weather", "lat": -82.40802542931931, "lon": -86.71736021740028, "alt_km": 496.68611332412, "timestamp": "2025-12-17T17:50:18.895635+00:00", "meta": {"OBJECT_NAME": "TIANMU-1 16", "OBJECT_ID": "2024-004B", "EPOCH": "2025-12-17T07:12:42.432768", "MEAN_MOTION": 15.2449461, "ECCENTRICITY": 0.00043449, "INCLINATION": 97.4562, "RA_OF_ASC_NODE": 172.1376, "ARG_OF_PERICENTER": 275.5116, "MEAN_ANOMALY": 84.5626, "EPHEMERIS_TYPE": 0, "CLASSIFICATION_TYPE": "U", "NORAD_CAT_ID": 58701, "ELEMENT_SET_NO": 999, "REV_AT_EPOCH": 10804, "BSTAR": 0.00022614383, "MEAN_MOTION_DOT": 5.487e-05, "MEAN_MOTION_DDOT": 0}, "tle": {"line1": "1 58701U 24004B   25351.30049112  .00005487  00000+0  22614-3 0  9998", "line2": "2 58701  97.4562 172.1376 0004344 275.5116  84.5626 15.24494610108045"}}, "geometry": {"type": "Point", "coordinates": [-86.71736021740028, -82.40802542931931]}}, {"type": "Feature", "properties": {"norad_id": 58702, "name": "TIANMU-1 17", "group": "weather", "lat": -6.150784156041073, "lon": 173.80001639355987, "alt_km": 495.47799715882775, "timestamp": "2025-12-17T17:50:18.895645+00:00", "meta": {"OBJECT_NAME": "TIANMU-1 17", "OBJECT_ID": "2024-004C", "EPOCH": "2025-12-17T08:24:51.123744", "MEAN_MOTION": 15.24538858, "ECCENTRICITY": 0.00035246, "INCLINATION": 97.4597, "RA_OF_ASC_NODE": 172.6, "ARG_OF_PERICENTER": 278.1504, "MEAN_ANOMALY": 81.9334, "EPHEMERIS_TYPE": 0, "CLASSIFICATION_TYPE": "U", "NORAD_CAT_ID": 58702, "ELEMENT_SET_NO": 999, "REV_AT_EPOCH": 10804, "BSTAR": 0.00022376599, "MEAN_MOTION_DOT": 5.436e-05, "MEAN_MOTION_DDOT": 0}, "tle": {"line1": "1 58702U 24004C   25351.35059171  .00005436  00000+0  22377-3 0  9990", "line2": "2 58702  97.4597 172.6000 0003524 278.1504  81.9334 15.24538858108042"}}, "geometry": {"type": "Point", "coordinates": [173.80001639355987, -6.150784156041073]}}, {"type": "Feature", "properties": {"norad_id": 58703, "name": "TIANMU-1 18", "group": "weather", "lat": 81.10303777105275, "lon": 116.34009968626647, "alt_km": 486.71714467107086, "timestamp": "2025-12-17T17:50:18.895658+00:00", "meta": {"OBJECT_NAME": "TIANMU-1 18", "OBJECT_ID": "2024-004D", "EPOCH": "2025-12-17T08:00:53.167680", "MEAN_MOTION": 15.24524167, "ECCENTRICITY": 0.00028661, "INCLINATION": 97.4614, "RA_OF_ASC_NODE": 172.7797, "ARG_OF_PERICENTER": 277.1437, "MEAN_ANOMALY": 82.9474, "EPHEMERIS_TYPE": 0, "CLASSIFICATION_TYPE": "U", "NORAD_CAT_ID": 58703, "ELEMENT_SET_NO": 999, "REV_AT_EPOCH": 10804, "BSTAR": 0.00022859577, "MEAN_MOTION_DOT": 5.552e-05, "MEAN_MOTION_DDOT": 0}, "tle": {"line1": "1 58703U 24004D   25351.33394870  .00005552  00000+0  22860-3 0  9993", "line2": "2 58703  97.4614 172.7797 0002866 277.1437  82.9474 15.24524167108043"}}, "geometry": {"type": "Point", "coordinates": [116.34009968626647, 81.10303777105275]}}, {"type": "Feature", "properties": {"norad_id": 58990, "name": "INSAT-3DS", "group": "weather", "lat": 0.008387416213430662, "lon": 76.28265544282701, "alt_km": 35790.4831529081, "timestamp": "2025-12-17T17:50:18.895670+00:00", "meta": {"OBJECT_NAME": "INSAT-3DS", "OBJECT_ID": "2024-033A", "EPOCH": "2025-12-17T03:26:41.867232", "MEAN_MOTION": 1.00272578, "ECCENTRICITY": 0.0001115, "INCLINATION": 0.0483, "RA_OF_ASC_NODE": 116.2951, "ARG_OF_PERICENTER": 153.3082, "MEAN_ANOMALY": 310.1912, "EPHEMERIS_TYPE": 0, "CLASSIFICATION_TYPE": "U", "NORAD_CAT_ID": 58990, "ELEMENT_SET_NO": 999, "REV_AT_EPOCH": 4524, "BSTAR": 0, "MEAN_MOTION_DOT": -1.32e-06, "MEAN_MOTION_DDOT": 0}, "tle": {"line1": "1 58990U 24033A   25351.14354013 -.00000132  00000+0  00000+0 0  9995", "line2": "2 58990   0.0483 116.2951 0001115 153.3082 310.1912  1.00272578 45247"}}, "geometry": {"type": "Point", "coordinates": [76.28265544282701, 0.008387416213430662]}}, {"type": "Feature", "properties": {"norad_id": 59051, "name": "METEOR-M2 4", "group": "weather", "lat": -43.32176382281772, "lon": 120.29332295081127, "alt_km": 826.3095813792252, "timestamp": "2025-12-17T17:50:18.895682+00:00", "meta": {"OBJECT_NAME": "METEOR-M2 4", "OBJECT_ID": "2024-039A", "EPOCH": "2025-12-17T08:20:51.766368", "MEAN_MOTION": 14.22402046, "ECCENTRICITY": 0.00067886, "INCLINATION": 98.6772, "RA_OF_ASC_NODE": 308.1845, "ARG_OF_PERICENTER": 345.1919, "MEAN_ANOMALY": 14.9059, "EPHEMERIS_TYPE": 0, "CLASSIFICATION_TYPE": "U", "NORAD_CAT_ID": 59051, "ELEMENT_SET_NO": 999, "REV_AT_EPOCH": 9341, "BSTAR": 2.6416923e-05, "MEAN_MOTION_DOT": 1.5e-07, "MEAN_MOTION_DDOT": 0}, "tle": {"line1": "1 59051U 24039A   25351.34782137  .00000015  00000+0  26417-4 0  9998", "line2": "2 59051  98.6772 308.1845 0006788 345.1919  14.9059 14.22402046 93411"}}, "geometry": {"type": "Point", "coordinates": [120.29332295081127, -43.32176382281772]}}, {"type": "Feature", "properties": {"norad_id": 60133, "name": "GOES 19", "group": "weather", "lat": 0.004568267177468683, "lon": -81.01236728177547, "alt_km": 35782.961259531774, "timestamp": "2025-12-17T17:50:18.895694+00:00", "meta": {"OBJECT_NAME": "GOES 19", "OBJECT_ID": "2024-119A", "EPOCH": "2025-12-17T04:24:28.832256", "MEAN_MOTION": 1.00272009, "ECCENTRICITY": 0.00010252, "INCLINATION": 0.0209, "RA_OF_ASC_NODE": 160.1979, "ARG_OF_PERICENTER": 162.8128, "MEAN_ANOMALY": 113.9865, "EPHEMERIS_TYPE": 0, "CLASSIFICATION_TYPE": "U", "NORAD_CAT_ID": 60133, "ELEMENT_SET_NO": 999, "REV_AT_EPOCH": 513, "BSTAR": 0, "MEAN_MOTION_DOT": -2.24e-06, "MEAN_MOTION_DDOT": 0}, "tle": {"line1": "1 60133U 24119A   25351.18366704 -.00000224  00000+0  00000+0 0  9998", "line2": "2 60133   0.0209 160.1979 0001025 162.8128 113.9865  1.00272009  5138"}}, "geometry": {"type": "Point", "coordinates": [-81.01236728177547, 0.004568267177468683]}}, {"type": "Feature", "properties": {"norad_id": 65815, "name": "FENGYUN 3H", "group": "weather", "lat": 56.831223295567796, "lon": -82.25726084450957, "alt_km": 819.8212671747406, "timestamp": "2025-12-17T17:50:18.895707+00:00", "meta": {"OBJECT_NAME": "FENGYUN 3H", "OBJECT_ID": "2025-219A", "EPOCH": "2025-12-17T07:25:11.403264", "MEAN_MOTION": 14.19906006, "ECCENTRICITY": 6.784e-05, "INCLINATION": 98.6589, "RA_OF_ASC_NODE": 290.8004, "ARG_OF_PERICENTER": 100.9071, "MEAN_ANOMALY": 259.2182, "EPHEMERIS_TYPE": 0, "CLASSIFICATION_TYPE": "U", "NORAD_CAT_ID": 65815, "ELEMENT_SET_NO": 999, "REV_AT_EPOCH": 1157, "BSTAR": 4.9707308e-05, "MEAN_MOTION_DOT": 6.2e-07, "MEAN_MOTION_DDOT": 0}, "tle": {"line1": "1 65815U 25219A   25351.30915976  .00000062  00000+0  49707-4 0  9998", "line2": "2 65815  98.6589 290.8004 0000678 100.9071 259.2182 14.19906006 11573"}}, "geometry": {"type": "Point", "coordinates": [-82.25726084450957, 56.831223295567796]}}]}